{
    "week": 295,
    "satellites": [
        {
            "Name": "BEIDOU-3 M24 (C46)",
            "Line1": "1 44542U 19061A   24338.12454101  .00000087  00000+0  00000+0 0  9997",
            "Line2": "2 44542  54.4241 201.6550 0009085  15.2861 344.8452  1.86229374 35342",
            "SatelliteNumber": "44542",
            "Classification": "U",
            "LaunchYear": "19",
            "LaunchNumber": "061",
            "PieceOfLaunch": "A",
            "EpochYear": "24",
            "EpochDay": 338.12454101,
            "FirstDerivativeMeanMotion": 8.7e-07,
            "SecondDerivativeMeanMotion": "00000+0",
            "BSTAR": "00000+0",
            "SetNumber": "999",
            "Inclination": 54.4241,
            "RAAN": 201.655,
            "Eccentricity": 0.0009085,
            "ArgumentOfPerigee": 15.2861,
            "MeanAnomaly": 344.8452,
            "MeanMotion": 1.86229374,
            "RevolutionNumber": "3534"
        },
        {
            "Name": "BEIDOU-3 M23 (C45)",
            "Line1": "1 44543U 19061B   24339.83871510  .00000079  00000+0  00000+0 0  9995",
            "Line2": "2 44543  54.4225 201.5659 0005747  13.3884 328.6147  1.86229521 35377",
            "SatelliteNumber": "44543",
            "Classification": "U",
            "LaunchYear": "19",
            "LaunchNumber": "061",
            "PieceOfLaunch": "B",
            "EpochYear": "24",
            "EpochDay": 339.8387151,
            "FirstDerivativeMeanMotion": 7.9e-07,
            "SecondDerivativeMeanMotion": "00000+0",
            "BSTAR": "00000+0",
            "SetNumber": "999",
            "Inclination": 54.4225,
            "RAAN": 201.5659,
            "Eccentricity": 0.0005747,
            "ArgumentOfPerigee": 13.3884,
            "MeanAnomaly": 328.6147,
            "MeanMotion": 1.86229521,
            "RevolutionNumber": "3537"
        },
        {
            "Name": "BEIDOU-3 IGSO-3 (C40)",
            "Line1": "1 44709U 19073A   24339.27028473 -.00000187  00000+0  00000+0 0  9993",
            "Line2": "2 44709  55.7635 286.9204 0040083 190.2554 169.6367  1.00250280 18824",
            "SatelliteNumber": "44709",
            "Classification": "U",
            "LaunchYear": "19",
            "LaunchNumber": "073",
            "PieceOfLaunch": "A",
            "EpochYear": "24",
            "EpochDay": 339.27028473,
            "FirstDerivativeMeanMotion": -1.87e-06,
            "SecondDerivativeMeanMotion": "00000+0",
            "BSTAR": "00000+0",
            "SetNumber": "999",
            "Inclination": 55.7635,
            "RAAN": 286.9204,
            "Eccentricity": 0.0040083,
            "ArgumentOfPerigee": 190.2554,
            "MeanAnomaly": 169.6367,
            "MeanMotion": 1.0025028,
            "RevolutionNumber": "1882"
        },
        {
            "Name": "BEIDOU-3 M22 (C44)",
            "Line1": "1 44793U 19078A   24338.50565799 -.00000052  00000+0  00000+0 0  9994",
            "Line2": "2 44793  54.4319 319.4737 0005630  11.4348 348.5755  1.86231971 34208",
            "SatelliteNumber": "44793",
            "Classification": "U",
            "LaunchYear": "19",
            "LaunchNumber": "078",
            "PieceOfLaunch": "A",
            "EpochYear": "24",
            "EpochDay": 338.50565799,
            "FirstDerivativeMeanMotion": -5.2e-07,
            "SecondDerivativeMeanMotion": "00000+0",
            "BSTAR": "00000+0",
            "SetNumber": "999",
            "Inclination": 54.4319,
            "RAAN": 319.4737,
            "Eccentricity": 0.000563,
            "ArgumentOfPerigee": 11.4348,
            "MeanAnomaly": 348.5755,
            "MeanMotion": 1.86231971,
            "RevolutionNumber": "3420"
        },
        {
            "Name": "BEIDOU-3 M21 (C43)",
            "Line1": "1 44794U 19078B   24339.17195336 -.00000050  00000+0  00000+0 0  9993",
            "Line2": "2 44794  54.4049 319.4229 0003833 355.9921   4.0032  1.86232516 34221",
            "SatelliteNumber": "44794",
            "Classification": "U",
            "LaunchYear": "19",
            "LaunchNumber": "078",
            "PieceOfLaunch": "B",
            "EpochYear": "24",
            "EpochDay": 339.17195336,
            "FirstDerivativeMeanMotion": -5e-07,
            "SecondDerivativeMeanMotion": "00000+0",
            "BSTAR": "00000+0",
            "SetNumber": "999",
            "Inclination": 54.4049,
            "RAAN": 319.4229,
            "Eccentricity": 0.0003833,
            "ArgumentOfPerigee": 355.9921,
            "MeanAnomaly": 4.0032,
            "MeanMotion": 1.86232516,
            "RevolutionNumber": "3422"
        },
        {
            "Name": "BEIDOU-3 M19 (C41)",
            "Line1": "1 44864U 19090A   24339.41923719 -.00000004  00000+0  00000+0 0  9995",
            "Line2": "2 44864  56.0686  81.3715 0017188 278.5057  79.3005  1.86231423 33801",
            "SatelliteNumber": "44864",
            "Classification": "U",
            "LaunchYear": "19",
            "LaunchNumber": "090",
            "PieceOfLaunch": "A",
            "EpochYear": "24",
            "EpochDay": 339.41923719,
            "FirstDerivativeMeanMotion": -4e-08,
            "SecondDerivativeMeanMotion": "00000+0",
            "BSTAR": "00000+0",
            "SetNumber": "999",
            "Inclination": 56.0686,
            "RAAN": 81.3715,
            "Eccentricity": 0.0017188,
            "ArgumentOfPerigee": 278.5057,
            "MeanAnomaly": 79.3005,
            "MeanMotion": 1.86231423,
            "RevolutionNumber": "3380"
        },
        {
            "Name": "BEIDOU-3 M20 (C42)",
            "Line1": "1 44865U 19090B   24339.30299220 -.00000005  00000+0  00000+0 0  9998",
            "Line2": "2 44865  56.0702  81.4090 0014460 291.3841  78.1792  1.86231401 33796",
            "SatelliteNumber": "44865",
            "Classification": "U",
            "LaunchYear": "19",
            "LaunchNumber": "090",
            "PieceOfLaunch": "B",
            "EpochYear": "24",
            "EpochDay": 339.3029922,
            "FirstDerivativeMeanMotion": -5e-08,
            "SecondDerivativeMeanMotion": "00000+0",
            "BSTAR": "00000+0",
            "SetNumber": "999",
            "Inclination": 56.0702,
            "RAAN": 81.409,
            "Eccentricity": 0.001446,
            "ArgumentOfPerigee": 291.3841,
            "MeanAnomaly": 78.1792,
            "MeanMotion": 1.86231401,
            "RevolutionNumber": "3379"
        },
        {
            "Name": "BEIDOU-3 G2 (C60)",
            "Line1": "1 45344U 20017A   24339.53433531 -.00000121  00000+0  00000+0 0  9991",
            "Line2": "2 45344   2.5521  35.4767 0004141 220.0597  90.7096  1.00272250 17642",
            "SatelliteNumber": "45344",
            "Classification": "U",
            "LaunchYear": "20",
            "LaunchNumber": "017",
            "PieceOfLaunch": "A",
            "EpochYear": "24",
            "EpochDay": 339.53433531,
            "FirstDerivativeMeanMotion": -1.21e-06,
            "SecondDerivativeMeanMotion": "00000+0",
            "BSTAR": "00000+0",
            "SetNumber": "999",
            "Inclination": 2.5521,
            "RAAN": 35.4767,
            "Eccentricity": 0.0004141,
            "ArgumentOfPerigee": 220.0597,
            "MeanAnomaly": 90.7096,
            "MeanMotion": 1.0027225,
            "RevolutionNumber": "1764"
        },
        {
            "Name": "BEIDOU-3 G3 (C61)",
            "Line1": "1 45807U 20040A   24339.75475132 -.00000333  00000+0  00000+0 0  9993",
            "Line2": "2 45807   1.1146  56.9842 0003610 301.5944  97.7638  1.00268687 16475",
            "SatelliteNumber": "45807",
            "Classification": "U",
            "LaunchYear": "20",
            "LaunchNumber": "040",
            "PieceOfLaunch": "A",
            "EpochYear": "24",
            "EpochDay": 339.75475132,
            "FirstDerivativeMeanMotion": -3.33e-06,
            "SecondDerivativeMeanMotion": "00000+0",
            "BSTAR": "00000+0",
            "SetNumber": "999",
            "Inclination": 1.1146,
            "RAAN": 56.9842,
            "Eccentricity": 0.000361,
            "ArgumentOfPerigee": 301.5944,
            "MeanAnomaly": 97.7638,
            "MeanMotion": 1.00268687,
            "RevolutionNumber": "1647"
        },
        {
            "Name": "BEIDOU-3 G4 (C62)",
            "Line1": "1 56564U 23066A   24339.55054260 -.00000089  00000+0  00000+0 0  9997",
            "Line2": "2 56564   1.7014 289.0988 0004243 257.5783 245.4319  1.00270899  5789",
            "SatelliteNumber": "56564",
            "Classification": "U",
            "LaunchYear": "23",
            "LaunchNumber": "066",
            "PieceOfLaunch": "A",
            "EpochYear": "24",
            "EpochDay": 339.5505426,
            "FirstDerivativeMeanMotion": -8.9e-07,
            "SecondDerivativeMeanMotion": "00000+0",
            "BSTAR": "00000+0",
            "SetNumber": "999",
            "Inclination": 1.7014,
            "RAAN": 289.0988,
            "Eccentricity": 0.0004243,
            "ArgumentOfPerigee": 257.5783,
            "MeanAnomaly": 245.4319,
            "MeanMotion": 1.00270899,
            "RevolutionNumber": "578"
        }
    ]
}